[{"OBJECT_NAME":"ONEWEB-0452","OBJECT_ID":"2022-012Y","EPOCH":"2025-11-05T06:30:48.430368","MEAN_MOTION":13.17649732,"ECCENTRICITY":0.00014653,"INCLINATION":87.913,"RA_OF_ASC_NODE":50.4122,"ARG_OF_PERICENTER":108.5186,"MEAN_ANOMALY":251.6105,"EPHEMERIS_TYPE":0,"CLASSIFICATION_TYPE":"U","NORAD_CAT_ID":51644,"ELEMENT_SET_NO":999,"REV_AT_EPOCH":18418,"BSTAR":-8.5088908e-5,"MEAN_MOTION_DOT":-2.0e-7,"MEAN_MOTION_DDOT":0},{"OBJECT_NAME":"ONEWEB-0456","OBJECT_ID":"2022-012AA","EPOCH":"2025-11-05T01:57:08.385120","MEAN_MOTION":13.1037089,"ECCENTRICITY":0.00017108,"INCLINATION":87.8797,"RA_OF_ASC_NODE":80.9008,"ARG_OF_PERICENTER":102.781,"MEAN_ANOMALY":257.3508,"EPHEMERIS_TYPE":0,"CLASSIFICATION_TYPE":"U","NORAD_CAT_ID":51646,"ELEMENT_SET_NO":999,"REV_AT_EPOCH":17999,"BSTAR":-0.0014124445,"MEAN_MOTION_DOT":-4.8e-6,"MEAN_MOTION_DDOT":0},{"OBJECT_NAME":"ONEWEB-0457","OBJECT_ID":"2022-012AB","EPOCH":"2025-11-05T06:53:34.026432","MEAN_MOTION":13.10372782,"ECCENTRICITY":0.00013082,"INCLINATION":87.8784,"RA_OF_ASC_NODE":80.911,"ARG_OF_PERICENTER":84.5512,"MEAN_ANOMALY":275.5764,"EPHEMERIS_TYPE":0,"CLASSIFICATION_TYPE":"U","NORAD_CAT_ID":51647,"ELEMENT_SET_NO":999,"REV_AT_EPOCH":18002,"BSTAR":0.001992859,"MEAN_MOTION_DOT":7.08e-6,"MEAN_MOTION_DDOT":0},{"OBJECT_NAME":"ONEWEB-0458","OBJECT_ID":"2022-012AC","EPOCH":"2025-11-05T01:54:45.202176","MEAN_MOTION":13.10383111,"ECCENTRICITY":7.992e-5,"INCLINATION":87.8799,"RA_OF_ASC_NODE":80.9243,"ARG_OF_PERICENTER":118.8651,"MEAN_ANOMALY":241.2557,"EPHEMERIS_TYPE":0,"CLASSIFICATION_TYPE":"U","NORAD_CAT_ID":51648,"ELEMENT_SET_NO":999,"REV_AT_EPOCH":17995,"BSTAR":-0.010140186,"MEAN_MOTION_DOT":-3.526e-5,"MEAN_MOTION_DDOT":0},{"OBJECT_NAME":"ONEWEB-0461","OBJECT_ID":"2022-012AD","EPOCH":"2025-11-05T07:02:23.766432","MEAN_MOTION":13.1765091,"ECCENTRICITY":0.00016938,"INCLINATION":87.9137,"RA_OF_ASC_NODE":50.3641,"ARG_OF_PERICENTER":96.1385,"MEAN_ANOMALY":263.994,"EPHEMERIS_TYPE":0,"CLASSIFICATION_TYPE":"U","NORAD_CAT_ID":51649,"ELEMENT_SET_NO":999,"REV_AT_EPOCH":18440,"BSTAR":0.00022843698,"MEAN_MOTION_DOT":1.02e-6,"MEAN_MOTION_DDOT":0},{"OBJECT_NAME":"ONEWEB-0463","OBJECT_ID":"2022-012AE","EPOCH":"2025-11-05T06:35:39.422976","MEAN_MOTION":13.17651593,"ECCENTRICITY":0.00016393,"INCLINATION":87.9121,"RA_OF_ASC_NODE":50.4188,"ARG_OF_PERICENTER":103.0492,"MEAN_ANOMALY":257.0823,"EPHEMERIS_TYPE":0,"CLASSIFICATION_TYPE":"U","NORAD_CAT_ID":51650,"ELEMENT_SET_NO":999,"REV_AT_EPOCH":18418,"BSTAR":0.00025032365,"MEAN_MOTION_DOT":1.1e-6,"MEAN_MOTION_DDOT":0},{"OBJECT_NAME":"ONEWEB-0464","OBJECT_ID":"2022-012AF","EPOCH":"2025-11-05T01:49:58.896768","MEAN_MOTION":13.10370127,"ECCENTRICITY":0.00017922,"INCLINATION":87.8782,"RA_OF_ASC_NODE":80.963,"ARG_OF_PERICENTER":105.3782,"MEAN_ANOMALY":254.7543,"EPHEMERIS_TYPE":0,"CLASSIFICATION_TYPE":"U","NORAD_CAT_ID":51651,"ELEMENT_SET_NO":999,"REV_AT_EPOCH":17997,"BSTAR":-0.00069508184,"MEAN_MOTION_DOT":-2.3e-6,"MEAN_MOTION_DDOT":0},{"OBJECT_NAME":"ONEWEB-0468","OBJECT_ID":"2022-012AG","EPOCH":"2025-11-05T01:59:31.094592","MEAN_MOTION":13.10371418,"ECCENTRICITY":0.00015657,"INCLINATION":87.8782,"RA_OF_ASC_NODE":80.9541,"ARG_OF_PERICENTER":107.3604,"MEAN_ANOMALY":252.7694,"EPHEMERIS_TYPE":0,"CLASSIFICATION_TYPE":"U","NORAD_CAT_ID":51652,"ELEMENT_SET_NO":999,"REV_AT_EPOCH":17995,"BSTAR":-0.0014434056,"MEAN_MOTION_DOT":-4.91e-6,"MEAN_MOTION_DDOT":0},{"OBJECT_NAME":"ONEWEB-0473","OBJECT_ID":"2022-012AH","EPOCH":"2025-11-05T01:38:02.226048","MEAN_MOTION":13.10370702,"ECCENTRICITY":0.0001516,"INCLINATION":87.8784,"RA_OF_ASC_NODE":80.961,"ARG_OF_PERICENTER":103.6115,"MEAN_ANOMALY":256.5181,"EPHEMERIS_TYPE":0,"CLASSIFICATION_TYPE":"U","NORAD_CAT_ID":51653,"ELEMENT_SET_NO":999,"REV_AT_EPOCH":17995,"BSTAR":0.00062862527,"MEAN_MOTION_DOT":2.32e-6,"MEAN_MOTION_DDOT":0},{"OBJECT_NAME":"ONEWEB-0474","OBJECT_ID":"2022-012AJ","EPOCH":"2025-11-05T06:55:57.824544","MEAN_MOTION":13.10372229,"ECCENTRICITY":0.00016811,"INCLINATION":87.8791,"RA_OF_ASC_NODE":80.8804,"ARG_OF_PERICENTER":108.6763,"MEAN_ANOMALY":251.4547,"EPHEMERIS_TYPE":0,"CLASSIFICATION_TYPE":"U","NORAD_CAT_ID":51654,"ELEMENT_SET_NO":999,"REV_AT_EPOCH":17997,"BSTAR":0.0018900917,"MEAN_MOTION_DOT":6.72e-6,"MEAN_MOTION_DDOT":0},{"OBJECT_NAME":"ONEWEB-0475","OBJECT_ID":"2022-012AK","EPOCH":"2025-11-05T06:52:40.162080","MEAN_MOTION":13.17651398,"ECCENTRICITY":0.00017637,"INCLINATION":87.9127,"RA_OF_ASC_NODE":50.4024,"ARG_OF_PERICENTER":127.3364,"MEAN_ANOMALY":232.7929,"EPHEMERIS_TYPE":0,"CLASSIFICATION_TYPE":"U","NORAD_CAT_ID":51655,"ELEMENT_SET_NO":999,"REV_AT_EPOCH":18420,"BSTAR":9.4978066e-5,"MEAN_MOTION_DOT":5.0e-7,"MEAN_MOTION_DDOT":0},{"OBJECT_NAME":"ONEWEB-0490","OBJECT_ID":"2022-138A","EPOCH":"2025-11-05T04:07:20.804448","MEAN_MOTION":13.1972514,"ECCENTRICITY":0.00020283,"INCLINATION":87.9244,"RA_OF_ASC_NODE":349.5261,"ARG_OF_PERICENTER":100.9011,"MEAN_ANOMALY":259.235,"EPHEMERIS_TYPE":0,"CLASSIFICATION_TYPE":"U","NORAD_CAT_ID":54113,"ELEMENT_SET_NO":999,"REV_AT_EPOCH":14728,"BSTAR":2.848174e-6,"MEAN_MOTION_DOT":1.4e-7,"MEAN_MOTION_DDOT":0},{"OBJECT_NAME":"ONEWEB-0492","OBJECT_ID":"2022-138B","EPOCH":"2025-11-05T04:43:45.379200","MEAN_MOTION":13.19727213,"ECCENTRICITY":0.00021085,"INCLINATION":87.9233,"RA_OF_ASC_NODE":349.5395,"ARG_OF_PERICENTER":96.9915,"MEAN_ANOMALY":263.1457,"EPHEMERIS_TYPE":0,"CLASSIFICATION_TYPE":"U","NORAD_CAT_ID":54114,"ELEMENT_SET_NO":999,"REV_AT_EPOCH":14729,"BSTAR":5.5207774e-5,"MEAN_MOTION_DOT":3.5e-7,"MEAN_MOTION_DDOT":0},{"OBJECT_NAME":"ONEWEB-0495","OBJECT_ID":"2022-138C","EPOCH":"2025-11-05T02:22:43.338144","MEAN_MOTION":13.19724982,"ECCENTRICITY":0.00023547,"INCLINATION":87.9229,"RA_OF_ASC_NODE":349.5645,"ARG_OF_PERICENTER":111.036,"MEAN_ANOMALY":249.1025,"EPHEMERIS_TYPE":0,"CLASSIFICATION_TYPE":"U","NORAD_CAT_ID":54115,"ELEMENT_SET_NO":999,"REV_AT_EPOCH":14726,"BSTAR":-0.00013280769,"MEAN_MOTION_DOT":-4.0e-7,"MEAN_MOTION_DDOT":0},{"OBJECT_NAME":"ONEWEB-0497","OBJECT_ID":"2022-138D","EPOCH":"2025-11-05T04:30:06.600960","MEAN_MOTION":13.19725661,"ECCENTRICITY":0.00019527,"INCLINATION":87.9238,"RA_OF_ASC_NODE":349.5303,"ARG_OF_PERICENTER":98.7371,"MEAN_ANOMALY":261.3983,"EPHEMERIS_TYPE":0,"CLASSIFICATION_TYPE":"U","NORAD_CAT_ID":54116,"ELEMENT_SET_NO":999,"REV_AT_EPOCH":14726,"BSTAR":-9.6567952e-5,"MEAN_MOTION_DOT":-2.6e-7,"MEAN_MOTION_DDOT":0},{"OBJECT_NAME":"ONEWEB-0499","OBJECT_ID":"2022-138E","EPOCH":"2025-11-05T04:06:14.168448","MEAN_MOTION":13.19725592,"ECCENTRICITY":0.00018369,"INCLINATION":87.9233,"RA_OF_ASC_NODE":349.5476,"ARG_OF_PERICENTER":103.1381,"MEAN_ANOMALY":256.9957,"EPHEMERIS_TYPE":0,"CLASSIFICATION_TYPE":"U","NORAD_CAT_ID":54117,"ELEMENT_SET_NO":999,"REV_AT_EPOCH":14727,"BSTAR":0.00023826138,"MEAN_MOTION_DOT":1.08e-6,"MEAN_MOTION_DDOT":0}]
