ONEWEB-0452             
1 51644U 22012Y   25309.27139387 -.00000020  00000+0 -85089-4 0  9993
2 51644  87.9130  50.4122 0001465 108.5186 251.6105 13.17649732184184
ONEWEB-0456             
1 51646U 22012AA  25309.08134705 -.00000480  00000+0 -14124-2 0  9993
2 51646  87.8797  80.9008 0001710 102.7810 257.3508 13.10370890179990
ONEWEB-0457             
1 51647U 22012AB  25309.28719938  .00000708  00000+0  19929-2 0  9992
2 51647  87.8784  80.9110 0001308  84.5512 275.5764 13.10372782180024
ONEWEB-0458             
1 51648U 22012AC  25309.07968984 -.00003526  00000+0 -10140-1 0  9995
2 51648  87.8799  80.9243 0000799 118.8651 241.2557 13.10383111179954
ONEWEB-0461             
1 51649U 22012AD  25309.29333063  .00000102  00000+0  22844-3 0  9995
2 51649  87.9137  50.3641 0001693  96.1385 263.9940 13.17650910184405
ONEWEB-0463             
1 51650U 22012AE  25309.27476184  .00000110  00000+0  25032-3 0  9998
2 51650  87.9121  50.4188 0001639 103.0492 257.0823 13.17651593184181
ONEWEB-0464             
1 51651U 22012AF  25309.07637612 -.00000230  00000+0 -69508-3 0  9993
2 51651  87.8782  80.9630 0001792 105.3782 254.7543 13.10370127179979
ONEWEB-0468             
1 51652U 22012AG  25309.08299878 -.00000491  00000+0 -14434-2 0  9999
2 51652  87.8782  80.9541 0001565 107.3604 252.7694 13.10371418179951
ONEWEB-0473             
1 51653U 22012AH  25309.06808132  .00000232  00000+0  62863-3 0  9998
2 51653  87.8784  80.9610 0001516 103.6115 256.5181 13.10370702179951
ONEWEB-0474             
1 51654U 22012AJ  25309.28886371  .00000672  00000+0  18901-2 0  9995
2 51654  87.8791  80.8804 0001681 108.6763 251.4547 13.10372229179979
ONEWEB-0475             
1 51655U 22012AK  25309.28657595  .00000050  00000+0  94978-4 0  9990
2 51655  87.9127  50.4024 0001763 127.3364 232.7929 13.17651398184209
ONEWEB-0490             
1 54113U 22138A   25309.17176857  .00000014  00000+0  28482-5 0  9994
2 54113  87.9244 349.5261 0002028 100.9011 259.2350 13.19725140147285
ONEWEB-0492             
1 54114U 22138B   25309.19705300  .00000035  00000+0  55208-4 0  9996
2 54114  87.9233 349.5395 0002108  96.9915 263.1457 13.19727213147294
ONEWEB-0495             
1 54115U 22138C   25309.09911271 -.00000040  00000+0 -13281-3 0  9994
2 54115  87.9229 349.5645 0002354 111.0360 249.1025 13.19724982147266
ONEWEB-0497             
1 54116U 22138D   25309.18757640 -.00000026  00000+0 -96568-4 0  9997
2 54116  87.9238 349.5303 0001952  98.7371 261.3983 13.19725661147268
ONEWEB-0499             
1 54117U 22138E   25309.17099732  .00000108  00000+0  23826-3 0  9993
2 54117  87.9233 349.5476 0001836 103.1381 256.9957 13.19725592147273
